{"type": "FeatureCollection", "features": [ {"type": "Feature", "properties": {"norad_id": 40118, "name": "GAOFEN-2", "group": "resource", "lat": -31.94864954990271, "lon": -133.89348303207694, "alt_km": 635.9360808030888, "timestamp": "2025-12-17T23:38:06.520220+00:00", "meta": {"OBJECT_NAME": "GAOFEN-2", "OBJECT_ID": "2014-049A", "EPOCH": "2025-12-17T14:34:15.194784", "MEAN_MOTION": 14.80619404, "ECCENTRICITY": 0.00086965, "INCLINATION": 98.0385, "RA_OF_ASC_NODE": 50.7843, "ARG_OF_PERICENTER": 99.4635, "MEAN_ANOMALY": 260.756, "EPHEMERIS_TYPE": 0, "CLASSIFICATION_TYPE": "U", "NORAD_CAT_ID": 40118, "ELEMENT_SET_NO": 999, "REV_AT_EPOCH": 61236, "BSTAR": 0.00013266329, "MEAN_MOTION_DOT": 9.65e-06, "MEAN_MOTION_DDOT": 0}, "tle": {"line1": "1 40118U 14049A   25351.60712031  .00000965  00000+0  13266-3 0  9998", "line2": "2 40118  98.0385  50.7843 0008696  99.4635 260.7560 14.80619404612362"}}, "geometry": {"type": "Point", "coordinates": [-133.89348303207694, -31.94864954990271]}}, {"type": "Feature", "properties": {"norad_id": 40143, "name": "YAOGAN-21", "group": "resource", "lat": -82.42990380068825, "lon": 143.64295619177742, "alt_km": 504.856540275885, "timestamp": "2025-12-17T23:38:06.520230+00:00", "meta": {"OBJECT_NAME": "YAOGAN-21", "OBJECT_ID": "2014-053A", "EPOCH": "2025-12-17T16:09:34.343424", "MEAN_MOTION": 15.23725631, "ECCENTRICITY": 0.00093086, "INCLINATION": 97.1751, "RA_OF_ASC_NODE": 34.7722, "ARG_OF_PERICENTER": 25.3848, "MEAN_ANOMALY": 334.7845, "EPHEMERIS_TYPE": 0, "CLASSIFICATION_TYPE": "U", "NORAD_CAT_ID": 40143, "ELEMENT_SET_NO": 999, "REV_AT_EPOCH": 62729, "BSTAR": 0.00013482381, "MEAN_MOTION_DOT": 3.175e-05, "MEAN_MOTION_DDOT": 0}, "tle": {"line1": "1 40143U 14053A   25351.67331416  .00003175  00000+0  13482-3 0  9998", "line2": "2 40143  97.1751  34.7722 0009308  25.3848 334.7845 15.23725631627294"}}, "geometry": {"type": "Point", "coordinates": [143.64295619177742, -82.42990380068825]}}, {"type": "Feature", "properties": {"norad_id": 40275, "name": "YAOGAN-22", "group": "resource", "lat": 40.68526662323766, "lon": -35.129701200514106, "alt_km": 1199.0251868491887, "timestamp": "2025-12-17T23:38:06.520241+00:00", "meta": {"OBJECT_NAME": "YAOGAN-22", "OBJECT_ID": "2014-063A", "EPOCH": "2025-12-17T10:09:25.054560", "MEAN_MOTION": 13.15522862, "ECCENTRICITY": 0.00059894, "INCLINATION": 100.7424, "RA_OF_ASC_NODE": 134.9088, "ARG_OF_PERICENTER": 236.7844, "MEAN_ANOMALY": 123.2694, "EPHEMERIS_TYPE": 0, "CLASSIFICATION_TYPE": "U", "NORAD_CAT_ID": 40275, "ELEMENT_SET_NO": 999, "REV_AT_EPOCH": 53591, "BSTAR": 5.1063601e-05, "MEAN_MOTION_DOT": -2.7e-07, "MEAN_MOTION_DDOT": 0}, "tle": {"line1": "1 40275U 14063A   25351.42320665 -.00000027  00000+0  51064-4 0  9995", "line2": "2 40275 100.7424 134.9088 0005989 236.7844 123.2694 13.15522862535911"}}, "geometry": {"type": "Point", "coordinates": [-35.129701200514106, 40.68526662323766]}}, {"type": "Feature", "properties": {"norad_id": 40298, "name": "ASNARO", "group": "resource", "lat": -56.73537614977846, "lon": -123.56905333720907, "alt_km": 516.6219602901156, "timestamp": "2025-12-17T23:38:06.520251+00:00", "meta": {"OBJECT_NAME": "ASNARO", "OBJECT_ID": "2014-070A", "EPOCH": "2025-12-17T14:41:31.887168", "MEAN_MOTION": 15.19602693, "ECCENTRICITY": 0.00056551, "INCLINATION": 97.3654, "RA_OF_ASC_NODE": 67.4399, "ARG_OF_PERICENTER": 108.8957, "MEAN_ANOMALY": 251.2892, "EPHEMERIS_TYPE": 0, "CLASSIFICATION_TYPE": "U", "NORAD_CAT_ID": 40298, "ELEMENT_SET_NO": 999, "REV_AT_EPOCH": 61643, "BSTAR": 0.00055744058, "MEAN_MOTION_DOT": 0.00011816, "MEAN_MOTION_DDOT": 0}, "tle": {"line1": "1 40298U 14070A   25351.61217462  .00011816  00000+0  55744-3 0  9994", "line2": "2 40298  97.3654  67.4399 0005655 108.8957 251.2892 15.19602693616437"}}, "geometry": {"type": "Point", "coordinates": [-123.56905333720907, -56.73537614977846]}}, {"type": "Feature", "properties": {"norad_id": 40310, "name": "YAOGAN-24", "group": "resource", "lat": 66.32011765243162, "lon": -37.89232612453919, "alt_km": 624.5751822863995, "timestamp": "2025-12-17T23:38:06.520261+00:00", "meta": {"OBJECT_NAME": "YAOGAN-24", "OBJECT_ID": "2014-072A", "EPOCH": "2025-12-17T14:59:41.640000", "MEAN_MOTION": 14.7618861, "ECCENTRICITY": 0.00149362, "INCLINATION": 98.1213, "RA_OF_ASC_NODE": 122.7434, "ARG_OF_PERICENTER": 123.2145, "MEAN_ANOMALY": 237.0498, "EPHEMERIS_TYPE": 0, "CLASSIFICATION_TYPE": "U", "NORAD_CAT_ID": 40310, "ELEMENT_SET_NO": 999, "REV_AT_EPOCH": 59693, "BSTAR": 0.00014342359, "MEAN_MOTION_DOT": 9.41e-06, "MEAN_MOTION_DDOT": 0}, "tle": {"line1": "1 40310U 14072A   25351.62478750  .00000941  00000+0  14342-3 0  9997", "line2": "2 40310  98.1213 122.7434 0014936 123.2145 237.0498 14.76188610596935"}}, "geometry": {"type": "Point", "coordinates": [-37.89232612453919, 66.32011765243162]}}, {"type": "Feature", "properties": {"norad_id": 40336, "name": "CBERS 4", "group": "resource", "lat": 13.597615725367453, "lon": -128.14627339103805, "alt_km": 773.7321671876052, "timestamp": "2025-12-17T23:38:06.520271+00:00", "meta": {"OBJECT_NAME": "CBERS 4", "OBJECT_ID": "2014-079A", "EPOCH": "2025-12-17T16:10:21.021024", "MEAN_MOTION": 14.3551994, "ECCENTRICITY": 0.00017622, "INCLINATION": 98.3309, "RA_OF_ASC_NODE": 49.5223, "ARG_OF_PERICENTER": 106.8033, "MEAN_ANOMALY": 253.3347, "EPHEMERIS_TYPE": 0, "CLASSIFICATION_TYPE": "U", "NORAD_CAT_ID": 40336, "ELEMENT_SET_NO": 999, "REV_AT_EPOCH": 57791, "BSTAR": 8.618964e-05, "MEAN_MOTION_DOT": 2.06e-06, "MEAN_MOTION_DDOT": 0}, "tle": {"line1": "1 40336U 14079A   25351.67385441  .00000206  00000+0  86190-4 0  9996", "line2": "2 40336  98.3309  49.5223 0001762 106.8033 253.3347 14.35519940577919"}}, "geometry": {"type": "Point", "coordinates": [-128.14627339103805, 13.597615725367453]}}, {"type": "Feature", "properties": {"norad_id": 40362, "name": "YAOGAN-26", "group": "resource", "lat": -79.22820047470141, "lon": 33.14523547753865, "alt_km": 455.36505363391825, "timestamp": "2025-12-17T23:38:06.520281+00:00", "meta": {"OBJECT_NAME": "YAOGAN-26", "OBJECT_ID": "2014-088A", "EPOCH": "2025-12-17T14:37:48.368640", "MEAN_MOTION": 15.39468525, "ECCENTRICITY": 0.00055903, "INCLINATION": 97.0633, "RA_OF_ASC_NODE": 352.1102, "ARG_OF_PERICENTER": 14.7772, "MEAN_ANOMALY": 345.3637, "EPHEMERIS_TYPE": 0, "CLASSIFICATION_TYPE": "U", "NORAD_CAT_ID": 40362, "ELEMENT_SET_NO": 999, "REV_AT_EPOCH": 60969, "BSTAR": 0.00035762306, "MEAN_MOTION_DOT": 0.00013959, "MEAN_MOTION_DDOT": 0}, "tle": {"line1": "1 40362U 14088A   25351.60958760  .00013959  00000+0  35762-3 0  9995", "line2": "2 40362  97.0633 352.1102 0005590  14.7772 345.3637 15.39468525609695"}}, "geometry": {"type": "Point", "coordinates": [33.14523547753865, -79.22820047470141]}}, {"type": "Feature", "properties": {"norad_id": 40376, "name": "SMAP", "group": "resource", "lat": 6.190230167926712, "lon": 177.52129926139125, "alt_km": 684.4297364471313, "timestamp": "2025-12-17T23:38:06.520291+00:00", "meta": {"OBJECT_NAME": "SMAP", "OBJECT_ID": "2015-003A", "EPOCH": "2025-12-17T14:38:20.732352", "MEAN_MOTION": 14.633512, "ECCENTRICITY": 0.0001216, "INCLINATION": 98.1289, "RA_OF_ASC_NODE": 356.2636, "ARG_OF_PERICENTER": 90.9416, "MEAN_ANOMALY": 269.1925, "EPHEMERIS_TYPE": 0, "CLASSIFICATION_TYPE": "U", "NORAD_CAT_ID": 40376, "ELEMENT_SET_NO": 999, "REV_AT_EPOCH": 58106, "BSTAR": 9.8760968e-05, "MEAN_MOTION_DOT": 4.63e-06, "MEAN_MOTION_DDOT": 0}, "tle": {"line1": "1 40376U 15003A   25351.60996218  .00000463  00000+0  98761-4 0  9993", "line2": "2 40376  98.1289 356.2636 0001216  90.9416 269.1925 14.63351200581068"}}, "geometry": {"type": "Point", "coordinates": [177.52129926139125, 6.190230167926712]}}, {"type": "Feature", "properties": {"norad_id": 40536, "name": "KOMPSAT-3A", "group": "resource", "lat": -52.766077771393775, "lon": -23.152493865270543, "alt_km": 444.43996970688386, "timestamp": "2025-12-17T23:38:06.520301+00:00", "meta": {"OBJECT_NAME": "KOMPSAT-3A", "OBJECT_ID": "2015-014A", "EPOCH": "2025-12-17T14:32:05.104896", "MEAN_MOTION": 15.44121801, "ECCENTRICITY": 0.00052345, "INCLINATION": 97.6784, "RA_OF_ASC_NODE": 326.2214, "ARG_OF_PERICENTER": 115.9949, "MEAN_ANOMALY": 244.1838, "EPHEMERIS_TYPE": 0, "CLASSIFICATION_TYPE": "U", "NORAD_CAT_ID": 40536, "ELEMENT_SET_NO": 999, "REV_AT_EPOCH": 59370, "BSTAR": 0.00036143496, "MEAN_MOTION_DOT": 0.00016469, "MEAN_MOTION_DDOT": 0}, "tle": {"line1": "1 40536U 15014A   25351.60561464  .00016469  00000+0  36143-3 0  9992", "line2": "2 40536  97.6784 326.2214 0005234 115.9949 244.1838 15.44121801593704"}}, "geometry": {"type": "Point", "coordinates": [-23.152493865270543, -52.766077771393775]}}, {"type": "Feature", "properties": {"norad_id": 40697, "name": "SENTINEL-2A", "group": "resource", "lat": 30.830159355137233, "lon": -110.39446484963933, "alt_km": 786.9339115501534, "timestamp": "2025-12-17T23:38:06.520312+00:00", "meta": {"OBJECT_NAME": "SENTINEL-2A", "OBJECT_ID": "2015-028A", "EPOCH": "2025-12-17T14:33:03.608064", "MEAN_MOTION": 14.3081562, "ECCENTRICITY": 0.00010562, "INCLINATION": 98.5691, "RA_OF_ASC_NODE": 64.0694, "ARG_OF_PERICENTER": 88.6707, "MEAN_ANOMALY": 271.4597, "EPHEMERIS_TYPE": 0, "CLASSIFICATION_TYPE": "U", "NORAD_CAT_ID": 40697, "ELEMENT_SET_NO": 999, "REV_AT_EPOCH": 54776, "BSTAR": 8.3955241e-05, "MEAN_MOTION_DOT": 1.76e-06, "MEAN_MOTION_DDOT": 0}, "tle": {"line1": "1 40697U 15028A   25351.60629176  .00000176  00000+0  83955-4 0  9992", "line2": "2 40697  98.5691  64.0694 0001056  88.6707 271.4597 14.30815620547767"}}, "geometry": {"type": "Point", "coordinates": [-110.39446484963933, 30.830159355137233]}}]}